{"type": "FeatureCollection", "features": [ {"type": "Feature", "properties": {"norad_id": 30295, "name": "FENGYUN 1C DEB", "group": "fengyun-1c-debris", "lat": 41.11971481786914, "lon": 4.312258158651044, "alt_km": 747.7916253695676, "timestamp": "2025-12-15T10:55:21.418102+00:00", "meta": {"OBJECT_NAME": "FENGYUN 1C DEB", "OBJECT_ID": "1999-025ZG", "EPOCH": "2025-12-14T20:23:01.053600", "MEAN_MOTION": 14.25045564, "ECCENTRICITY": 0.00944745, "INCLINATION": 98.508, "RA_OF_ASC_NODE": 11.2334, "ARG_OF_PERICENTER": 76.3879, "MEAN_ANOMALY": 99.9189, "EPHEMERIS_TYPE": 0, "CLASSIFICATION_TYPE": "U", "NORAD_CAT_ID": 30295, "ELEMENT_SET_NO": 999, "REV_AT_EPOCH": 98206, "BSTAR": 0.00016910413, "MEAN_MOTION_DOT": 3.73e-06, "MEAN_MOTION_DDOT": 0}, "tle": {"line1": "1 30295U 99025ZG  25348.84931775  .00000373  00000+0  16910-3 0  9992", "line2": "2 30295  98.5080  11.2334 0094474  76.3879  99.9189 14.25045564982069"}}, "geometry": {"type": "Point", "coordinates": [4.312258158651044, 41.11971481786914]}}, {"type": "Feature", "properties": {"norad_id": 30297, "name": "FENGYUN 1C DEB", "group": "fengyun-1c-debris", "lat": -49.55059468872964, "lon": -48.50487461911897, "alt_km": 1078.0183723952387, "timestamp": "2025-12-15T10:55:21.418113+00:00", "meta": {"OBJECT_NAME": "FENGYUN 1C DEB", "OBJECT_ID": "1999-025ZJ", "EPOCH": "2025-12-14T20:13:22.407744", "MEAN_MOTION": 14.2182461, "ECCENTRICITY": 0.03796163, "INCLINATION": 98.8112, "RA_OF_ASC_NODE": 300.3995, "ARG_OF_PERICENTER": 109.5565, "MEAN_ANOMALY": 308.5306, "EPHEMERIS_TYPE": 0, "CLASSIFICATION_TYPE": "U", "NORAD_CAT_ID": 30297, "ELEMENT_SET_NO": 999, "REV_AT_EPOCH": 95182, "BSTAR": 0.00078095665, "MEAN_MOTION_DOT": 3.555e-05, "MEAN_MOTION_DDOT": 0}, "tle": {"line1": "1 30297U 99025ZJ  25348.84262046  .00003555  00000+0  78096-3 0  9990", "line2": "2 30297  98.8112 300.3995 0379616 109.5565 308.5306 14.21824610951823"}}, "geometry": {"type": "Point", "coordinates": [-48.50487461911897, -49.55059468872964]}}, {"type": "Feature", "properties": {"norad_id": 30298, "name": "FENGYUN 1C DEB", "group": "fengyun-1c-debris", "lat": -3.6661662015523797, "lon": 81.02147165383563, "alt_km": 848.2714224697384, "timestamp": "2025-12-15T10:55:21.418123+00:00", "meta": {"OBJECT_NAME": "FENGYUN 1C DEB", "OBJECT_ID": "1999-025ZK", "EPOCH": "2025-12-14T20:17:48.873120", "MEAN_MOTION": 14.19958333, "ECCENTRICITY": 0.00483583, "INCLINATION": 99.0018, "RA_OF_ASC_NODE": 79.8199, "ARG_OF_PERICENTER": 122.249, "MEAN_ANOMALY": 1.1683, "EPHEMERIS_TYPE": 0, "CLASSIFICATION_TYPE": "U", "NORAD_CAT_ID": 30298, "ELEMENT_SET_NO": 999, "REV_AT_EPOCH": 96864, "BSTAR": 0.0014528273, "MEAN_MOTION_DOT": 3.079e-05, "MEAN_MOTION_DDOT": 0}, "tle": {"line1": "1 30298U 99025ZK  25348.84570455  .00003079  00000+0  14528-2 0  9997", "line2": "2 30298  99.0018  79.8199 0048358 122.2490   1.1683 14.19958333968640"}}, "geometry": {"type": "Point", "coordinates": [81.02147165383563, -3.6661662015523797]}}, {"type": "Feature", "properties": {"norad_id": 30299, "name": "FENGYUN 1C DEB", "group": "fengyun-1c-debris", "lat": 77.54862747671329, "lon": -71.79278591950757, "alt_km": 869.6747524402526, "timestamp": "2025-12-15T10:55:21.418137+00:00", "meta": {"OBJECT_NAME": "FENGYUN 1C DEB", "OBJECT_ID": "1999-025ZL", "EPOCH": "2025-12-14T16:25:04.310688", "MEAN_MOTION": 14.07759155, "ECCENTRICITY": 0.01031241, "INCLINATION": 99.0944, "RA_OF_ASC_NODE": 60.9276, "ARG_OF_PERICENTER": 2.4321, "MEAN_ANOMALY": 149.5279, "EPHEMERIS_TYPE": 0, "CLASSIFICATION_TYPE": "U", "NORAD_CAT_ID": 30299, "ELEMENT_SET_NO": 999, "REV_AT_EPOCH": 96317, "BSTAR": 0.0013411197, "MEAN_MOTION_DOT": 2.338e-05, "MEAN_MOTION_DDOT": 0}, "tle": {"line1": "1 30299U 99025ZL  25348.68407767  .00002338  00000+0  13411-2 0  9992", "line2": "2 30299  99.0944  60.9276 0103124   2.4321 149.5279 14.07759155963170"}}, "geometry": {"type": "Point", "coordinates": [-71.79278591950757, 77.54862747671329]}}, {"type": "Feature", "properties": {"norad_id": 30300, "name": "FENGYUN 1C DEB", "group": "fengyun-1c-debris", "lat": 78.79858891162503, "lon": -67.6038848271528, "alt_km": 847.8816871066201, "timestamp": "2025-12-15T10:55:21.418151+00:00", "meta": {"OBJECT_NAME": "FENGYUN 1C DEB", "OBJECT_ID": "1999-025ZM", "EPOCH": "2025-12-14T10:59:29.357088", "MEAN_MOTION": 14.26860812, "ECCENTRICITY": 0.00749591, "INCLINATION": 99.0405, "RA_OF_ASC_NODE": 57.8553, "ARG_OF_PERICENTER": 289.1912, "MEAN_ANOMALY": 88.1825, "EPHEMERIS_TYPE": 0, "CLASSIFICATION_TYPE": "U", "NORAD_CAT_ID": 30300, "ELEMENT_SET_NO": 999, "REV_AT_EPOCH": 97009, "BSTAR": 0.0022526727, "MEAN_MOTION_DOT": 5.587e-05, "MEAN_MOTION_DDOT": 0}, "tle": {"line1": "1 30300U 99025ZM  25348.45797867  .00005587  00000+0  22527-2 0  9990", "line2": "2 30300  99.0405  57.8553 0074959 289.1912  88.1825 14.26860812970099"}}, "geometry": {"type": "Point", "coordinates": [-67.6038848271528, 78.79858891162503]}}, {"type": "Feature", "properties": {"norad_id": 30301, "name": "FENGYUN 1C DEB", "group": "fengyun-1c-debris", "lat": 28.869087475781924, "lon": -34.53884551318397, "alt_km": 745.8180001420724, "timestamp": "2025-12-15T10:55:21.418161+00:00", "meta": {"OBJECT_NAME": "FENGYUN 1C DEB", "OBJECT_ID": "1999-025ZN", "EPOCH": "2025-12-14T21:42:29.728800", "MEAN_MOTION": 14.53074081, "ECCENTRICITY": 0.00689913, "INCLINATION": 98.6344, "RA_OF_ASC_NODE": 140.0888, "ARG_OF_PERICENTER": 282.8596, "MEAN_ANOMALY": 229.8624, "EPHEMERIS_TYPE": 0, "CLASSIFICATION_TYPE": "U", "NORAD_CAT_ID": 30301, "ELEMENT_SET_NO": 999, "REV_AT_EPOCH": 97248, "BSTAR": 0.002376488, "MEAN_MOTION_DOT": 0.00010096, "MEAN_MOTION_DDOT": 0}, "tle": {"line1": "1 30301U 99025ZN  25348.90451075  .00010096  00000+0  23765-2 0  9995", "line2": "2 30301  98.6344 140.0888 0068991 282.8596 229.8624 14.53074081972481"}}, "geometry": {"type": "Point", "coordinates": [-34.53884551318397, 28.869087475781924]}}, {"type": "Feature", "properties": {"norad_id": 30302, "name": "FENGYUN 1C DEB", "group": "fengyun-1c-debris", "lat": -45.4969760999552, "lon": 68.22451535880737, "alt_km": 889.3717034410765, "timestamp": "2025-12-15T10:55:21.418171+00:00", "meta": {"OBJECT_NAME": "FENGYUN 1C DEB", "OBJECT_ID": "1999-025ZP", "EPOCH": "2025-12-14T16:52:09.914592", "MEAN_MOTION": 14.12823423, "ECCENTRICITY": 0.01049329, "INCLINATION": 98.5533, "RA_OF_ASC_NODE": 256.3143, "ARG_OF_PERICENTER": 111.9241, "MEAN_ANOMALY": 249.3126, "EPHEMERIS_TYPE": 0, "CLASSIFICATION_TYPE": "U", "NORAD_CAT_ID": 30302, "ELEMENT_SET_NO": 999, "REV_AT_EPOCH": 96071, "BSTAR": 0.0017043372, "MEAN_MOTION_DOT": 3.298e-05, "MEAN_MOTION_DDOT": 0}, "tle": {"line1": "1 30302U 99025ZP  25348.70289253  .00003298  00000+0  17043-2 0  9999", "line2": "2 30302  98.5533 256.3143 0104932 111.9241 249.3126 14.12823423960715"}}, "geometry": {"type": "Point", "coordinates": [68.22451535880737, -45.4969760999552]}}, {"type": "Feature", "properties": {"norad_id": 30303, "name": "FENGYUN 1C DEB", "group": "fengyun-1c-debris", "lat": -61.72122738000376, "lon": 84.01390829417478, "alt_km": 762.0129004918317, "timestamp": "2025-12-15T10:55:21.418181+00:00", "meta": {"OBJECT_NAME": "FENGYUN 1C DEB", "OBJECT_ID": "1999-025ZQ", "EPOCH": "2025-12-12T04:03:36.940320", "MEAN_MOTION": 14.25816764, "ECCENTRICITY": 0.00761786, "INCLINATION": 99.0213, "RA_OF_ASC_NODE": 63.4569, "ARG_OF_PERICENTER": 284.1108, "MEAN_ANOMALY": 75.1614, "EPHEMERIS_TYPE": 0, "CLASSIFICATION_TYPE": "U", "NORAD_CAT_ID": 30303, "ELEMENT_SET_NO": 999, "REV_AT_EPOCH": 97027, "BSTAR": 0.00363966, "MEAN_MOTION_DOT": 8.885e-05, "MEAN_MOTION_DDOT": 0}, "tle": {"line1": "1 30303U 99025ZQ  25346.16917755  .00008885  00000+0  36397-2 0  9993", "line2": "2 30303  99.0213  63.4569 0076178 284.1108  75.1614 14.25816764970274"}}, "geometry": {"type": "Point", "coordinates": [84.01390829417478, -61.72122738000376]}}, {"type": "Feature", "properties": {"norad_id": 30304, "name": "FENGYUN 1C DEB", "group": "fengyun-1c-debris", "lat": -7.397169593175513, "lon": 63.10420087818029, "alt_km": 809.0766015292402, "timestamp": "2025-12-15T10:55:21.418191+00:00", "meta": {"OBJECT_NAME": "FENGYUN 1C DEB", "OBJECT_ID": "1999-025ZR", "EPOCH": "2025-12-14T21:23:09.790656", "MEAN_MOTION": 14.15507124, "ECCENTRICITY": 0.00736287, "INCLINATION": 99.0327, "RA_OF_ASC_NODE": 61.3496, "ARG_OF_PERICENTER": 42.9117, "MEAN_ANOMALY": 317.7768, "EPHEMERIS_TYPE": 0, "CLASSIFICATION_TYPE": "U", "NORAD_CAT_ID": 30304, "ELEMENT_SET_NO": 999, "REV_AT_EPOCH": 96849, "BSTAR": 0.0010428242, "MEAN_MOTION_DOT": 2.047e-05, "MEAN_MOTION_DDOT": 0}, "tle": {"line1": "1 30304U 99025ZR  25348.89108554  .00002047  00000+0  10428-2 0  9996", "line2": "2 30304  99.0327  61.3496 0073628  42.9117 317.7768 14.15507124968496"}}, "geometry": {"type": "Point", "coordinates": [63.10420087818029, -7.397169593175513]}}, {"type": "Feature", "properties": {"norad_id": 30305, "name": "FENGYUN 1C DEB", "group": "fengyun-1c-debris", "lat": -78.62665502975887, "lon": 60.43050300045426, "alt_km": 1235.0659113813554, "timestamp": "2025-12-15T10:55:21.418201+00:00", "meta": {"OBJECT_NAME": "FENGYUN 1C DEB", "OBJECT_ID": "1999-025ZS", "EPOCH": "2025-12-14T19:48:12.756960", "MEAN_MOTION": 13.60231177, "ECCENTRICITY": 0.02657641, "INCLINATION": 98.5874, "RA_OF_ASC_NODE": 288.5699, "ARG_OF_PERICENTER": 95.6404, "MEAN_ANOMALY": 323.0794, "EPHEMERIS_TYPE": 0, "CLASSIFICATION_TYPE": "U", "NORAD_CAT_ID": 30305, "ELEMENT_SET_NO": 999, "REV_AT_EPOCH": 93802, "BSTAR": 0.00032139041, "MEAN_MOTION_DOT": 2.7e-06, "MEAN_MOTION_DDOT": 0}, "tle": {"line1": "1 30305U 99025ZS  25348.82514765  .00000270  00000+0  32139-3 0  9995", "line2": "2 30305  98.5874 288.5699 0265764  95.6404 323.0794 13.60231177938020"}}, "geometry": {"type": "Point", "coordinates": [60.43050300045426, -78.62665502975887]}}]}